{
    "links": {
        "self": "http://www.neowsapp.com/rest/v1/neo/3769401?api_key=iIulBulltgU6a56xZRHN4H3l9WmuAYTsLGpBGhQ2"
    },
    "id": "3769401",
    "neo_reference_id": "3769401",
    "name": "(2017 CQ32)",
    "designation": "2017 CQ32",
    "nasa_jpl_url": "http://ssd.jpl.nasa.gov/sbdb.cgi?sstr=3769401",
    "absolute_magnitude_h": 24.2,
    "estimated_diameter": {
        "kilometers": {
            "estimated_diameter_min": 0.0384197891,
            "estimated_diameter_max": 0.0859092601
        },
        "meters": {
            "estimated_diameter_min": 38.4197891064,
            "estimated_diameter_max": 85.9092601232
        },
        "miles": {
            "estimated_diameter_min": 0.0238729428,
            "estimated_diameter_max": 0.0533815229
        },
        "feet": {
            "estimated_diameter_min": 126.0491808919,
            "estimated_diameter_max": 281.8545369825
        }
    },
    "is_potentially_hazardous_asteroid": false,
    "close_approach_data": [
        {
            "close_approach_date": "2017-02-25",
            "close_approach_date_full": "2017-Feb-25 01:58",
            "epoch_date_close_approach": 1487987880000,
            "relative_velocity": {
                "kilometers_per_second": "16.3678425889",
                "kilometers_per_hour": "58924.2333199907",
                "miles_per_hour": "36613.2270870798"
            },
            "miss_distance": {
                "astronomical": "0.0684326966",
                "lunar": "26.6203189774",
                "kilometers": "10237385.649716242",
                "miles": "6361216.4692064596"
            },
            "orbiting_body": "Earth"
        },
        {
            "close_approach_date": "2017-03-24",
            "close_approach_date_full": "2017-Mar-24 17:27",
            "epoch_date_close_approach": 1490376420000,
            "relative_velocity": {
                "kilometers_per_second": "17.9056146249",
                "kilometers_per_hour": "64460.2126495392",
                "miles_per_hour": "40053.0693543762"
            },
            "miss_distance": {
                "astronomical": "0.143743677",
                "lunar": "55.916290353",
                "kilometers": "21503747.90516799",
                "miles": "13361809.352938662"
            },
            "orbiting_body": "Venus"
        }
    ],
    "orbital_data": {
        "orbit_id": "3",
        "orbit_determination_date": "2017-04-06 08:20:11",
        "first_observation_date": "2017-01-28",
        "last_observation_date": "2017-02-21",
        "data_arc_in_days": 24,
        "observations_used": 21,
        "orbit_uncertainty": "8",
        "minimum_orbit_intersection": ".00582203",
        "jupiter_tisserand_invariant": "3.682",
        "epoch_osculation": "2457790.5",
        "eccentricity": ".622999633663857",
        "semi_major_axis": "1.896912487763566",
        "inclination": "6.454790376932165",
        "ascending_node_longitude": "122.6829152580648",
        "orbital_period": "954.2658238682083",
        "perihelion_distance": ".7151367027944688",
        "perihelion_argument": "106.3461316442491",
        "aphelion_distance": "3.078688272732664",
        "perihelion_time": "2457855.085535484972",
        "mean_anomaly": "335.6348889449476",
        "mean_motion": ".3772533721690937",
        "equinox": "J2000",
        "orbit_class": {
            "orbit_class_type": "APO",
            "orbit_class_description": "Near-Earth asteroid orbits which cross the Earth’s orbit similar to that of 1862 Apollo",
            "orbit_class_range": "a (semi-major axis) > 1.0 AU; q (perihelion) < 1.017 AU"
        }
    },
    "is_sentry_object": false
}